Results
*******************************************************************************
 Revised: Aug 07, 2025                Ymir / (Saturn)                       619
                             https://ssd.jpl.nasa.gov/sats/elem/

 Retrograde irregular moon of Saturn. Discovered by B. Gladman et al. 
 (IAUC 7512). Preliminary designation S/2000 S 1 (2000S1). Named in 2003
 (IAUC 8177), from Norse mythology, where Ymir is the ancestor of all the 
 Jotuns or frost giants.
*******************************************************************************


*******************************************************************************
Ephemeris / API_USER Sat Nov 29 01:49:34 2025 Pasadena, USA      / Horizons    
*******************************************************************************
Target body name: Ymir (619)                      {source: sat456_merged_DE440}
Center body name: Earth (399)                     {source: sat456_merged_DE440}
Center-site name: GEOCENTRIC
*******************************************************************************
Start time      : A.D. 2020-Jan-01 00:00:00.0000 UT      
Stop  time      : A.D. 2020-Dec-20 00:00:00.0000 UT      
Step-size       : 1440 minutes
*******************************************************************************
Target pole/equ : undefined
Target radii    : undefined                                                    
Center geodetic : 0.0, 0.0, -6378.137             {E-lon(deg),Lat(deg),Alt(km)}
Center cylindric: 0.0, 0.0, 0.0                   {E-lon(deg),Dxy(km),Dz(km)}
Center pole/equ : ITRF93                          {East-longitude positive}
Center radii    : 6378.137, 6378.137, 6356.752 km {Equator_a, b, pole_c}       
Target primary  : Saturn
Vis. interferer : MOON (R_eq= 1737.400) km        {source: sat456_merged_DE440}
Rel. light bend : Sun                             {source: sat456_merged_DE440}
Rel. lght bnd GM: 1.3271E+11 km^3/s^2                                          
Atmos refraction: NO (AIRLESS)
RA format       : HMS
Time format     : CAL 
Calendar mode   : Mixed Julian/Gregorian
EOP file        : eop.251128.p260224                                           
EOP coverage    : DATA-BASED 1962-JAN-20 TO 2025-NOV-28. PREDICTS-> 2026-FEB-23
Units conversion: 1 au= 149597870.700 km, c= 299792.458 km/s, 1 day= 86400.0 s 
Table cut-offs 1: Elevation (-90.0deg=NO ),Airmass (>38.000=NO), Daylight (NO )
Table cut-offs 2: Solar elongation (  0.0,180.0=NO ),Local Hour Angle( 0.0=NO )
Table cut-offs 3: RA/DEC angular rate (     0.0=NO )                           
**************************************************************************************************************************
 Date__(UT)__HR:MN     R.A._____(ICRF)_____DEC    APmag   S-brt             delta      deldot     S-O-T /r     S-T-O  Cnst
**************************************************************************************************************************
$$SOE
 2020-Aug-16 00:00     19 59 39.15 -20 57 45.3     n.a.    n.a.  9.13055603778455  13.4438735  154.4488 /T    2.4842   Sgr
 2020-Aug-17 00:00     19 59 23.59 -20 58 35.0     n.a.    n.a.  9.13845483798895  13.9083483  153.4253 /T    2.5763   Sgr
 2020-Aug-18 00:00     19 59 08.26 -20 59 23.9     n.a.    n.a.  9.14662068007004  14.3685619  152.4022 /T    2.6675   Sgr
 2020-Aug-19 00:00     19 58 53.17 -21 00 12.1     n.a.    n.a.  9.15505100543993  14.8241718  151.3797 /T    2.7578   Sgr
 2020-Aug-20 00:00     19 58 38.31 -21 00 59.4     n.a.    n.a.  9.16374305191791  15.2748193  150.3577 /T    2.8471   Sgr
 2020-Aug-21 00:00     19 58 23.71 -21 01 45.9     n.a.    n.a.  9.17269385160534  15.7201561  149.3364 /T    2.9354   Sgr
 2020-Aug-22 00:00     19 58 09.36 -21 02 31.5     n.a.    n.a.  9.18190024617846  16.1598759  148.3158 /T    3.0226   Sgr
 2020-Aug-23 00:00     19 57 55.27 -21 03 16.3     n.a.    n.a.  9.19135891880616  16.5937391  147.2959 /T    3.1088   Sgr
 2020-Aug-24 00:00     19 57 41.46 -21 04 00.2     n.a.    n.a.  9.20106643646879  17.0215835  146.2767 /T    3.1938   Sgr
 2020-Aug-25 00:00     19 57 27.92 -21 04 43.2     n.a.    n.a.  9.21101929382651  17.4433190  145.2583 /T    3.2777   Sgr
 2020-Aug-26 00:00     19 57 14.67 -21 05 25.2     n.a.    n.a.  9.22121395103504  17.8589131  144.2408 /T    3.3605   Sgr
 2020-Aug-27 00:00     19 57 01.71 -21 06 06.4     n.a.    n.a.  9.23164686152531  18.2683720  143.2240 /T    3.4421   Sgr
 2020-Aug-28 00:00     19 56 49.05 -21 06 46.6     n.a.    n.a.  9.24231448934436  18.6717238  142.2081 /T    3.5225   Sgr
 2020-Aug-29 00:00     19 56 36.69 -21 07 25.9     n.a.    n.a.  9.25321331773787  19.0690050  141.1931 /T    3.6017   Sgr
 2020-Aug-30 00:00     19 56 24.63 -21 08 04.2     n.a.    n.a.  9.26433985115872  19.4602511  140.1789 /T    3.6797   Sgr
 2020-Aug-31 00:00     19 56 12.89 -21 08 41.5     n.a.    n.a.  9.27569061250009  19.8454894  139.1655 /T    3.7563   Sgr
 2020-Sep-01 00:00     19 56 01.47 -21 09 17.9     n.a.    n.a.  9.28726213679491  20.2247340  138.1530 /T    3.8317   Sgr
 2020-Sep-02 00:00     19 55 50.37 -21 09 53.2     n.a.    n.a.  9.29905096228495  20.5979814  137.1413 /T    3.9058   Sgr
 2020-Sep-03 00:00     19 55 39.60 -21 10 27.6     n.a.    n.a.  9.31105361971992  20.9652089  136.1305 /T    3.9786   Sgr
 2020-Sep-04 00:00     19 55 29.17 -21 11 00.9     n.a.    n.a.  9.32326662085463  21.3263735  135.1206 /T    4.0500   Sgr
 2020-Sep-05 00:00     19 55 19.07 -21 11 33.2     n.a.    n.a.  9.33568644717328  21.6814136  134.1115 /T    4.1201   Sgr
 2020-Sep-06 00:00     19 55 09.32 -21 12 04.5     n.a.    n.a.  9.34830953974403  22.0302515  133.1032 /T    4.1888   Sgr
 2020-Sep-07 00:00     19 54 59.91 -21 12 34.8     n.a.    n.a.  9.36113229077525  22.3727962  132.0958 /T    4.2560   Sgr
 2020-Sep-08 00:00     19 54 50.86 -21 13 04.0     n.a.    n.a.  9.37415103696768  22.7089469  131.0893 /T    4.3219   Sgr
 2020-Sep-09 00:00     19 54 42.16 -21 13 32.2     n.a.    n.a.  9.38736205424240  23.0385941  130.0836 /T    4.3864   Sgr
 2020-Sep-10 00:00     19 54 33.83 -21 13 59.3     n.a.    n.a.  9.40076155295157  23.3616199  129.0788 /T    4.4493   Sgr
 2020-Sep-11 00:00     19 54 25.86 -21 14 25.3     n.a.    n.a.  9.41434567230801  23.6778953  128.0748 /T    4.5109   Sgr
 2020-Sep-12 00:00     19 54 18.27 -21 14 50.3     n.a.    n.a.  9.42811047256270  23.9872748  127.0718 /T    4.5709   Sgr
 2020-Sep-13 00:00     19 54 11.04 -21 15 14.2     n.a.    n.a.  9.44205192354862  24.2895895  126.0696 /T    4.6294   Sgr
 2020-Sep-14 00:00     19 54 04.20 -21 15 37.0     n.a.    n.a.  9.45616588884835  24.5846393  125.0684 /T    4.6865   Sgr
 2020-Sep-15 00:00     19 53 57.74 -21 15 58.7     n.a.    n.a.  9.47044810635692  24.8721887  124.0681 /T    4.7420   Sgr
 2020-Sep-16 00:00     19 53 51.66 -21 16 19.3     n.a.    n.a.  9.48489416854957  25.1519714  123.0688 /T    4.7959   Sgr
 2020-Sep-17 00:00     19 53 45.98 -21 16 38.8     n.a.    n.a.  9.49949950875281  25.4237068  122.0704 /T    4.8483   Sgr
 2020-Sep-18 00:00     19 53 40.68 -21 16 57.1     n.a.    n.a.  9.51425940143737  25.6871313  121.0731 /T    4.8991   Sgr
 2020-Sep-19 00:00     19 53 35.79 -21 17 14.4     n.a.    n.a.  9.52916898267775  25.9420352  120.0768 /T    4.9483   Sgr
 2020-Sep-20 00:00     19 53 31.29 -21 17 30.6     n.a.    n.a.  9.54422329063466  26.1882928  119.0816 /T    4.9960   Sgr
 2020-Sep-21 00:00     19 53 27.20 -21 17 45.6     n.a.    n.a.  9.55941731794853  26.4258719  118.0875 /T    5.0420   Sgr
 2020-Sep-22 00:00     19 53 23.51 -21 17 59.5     n.a.    n.a.  9.57474606334092  26.6548222  117.0945 /T    5.0864   Sgr
 2020-Sep-23 00:00     19 53 20.23 -21 18 12.3     n.a.    n.a.  9.59020457145131  26.8752480  116.1027 /T    5.1292   Sgr
 2020-Sep-24 00:00     19 53 17.35 -21 18 23.9     n.a.    n.a.  9.60578795612371  27.0872801  115.1120 /T    5.1704   Sgr
 2020-Sep-25 00:00     19 53 14.88 -21 18 34.4     n.a.    n.a.  9.62149140856963  27.2910528  114.1225 /T    5.2100   Sgr
 2020-Sep-26 00:00     19 53 12.82 -21 18 43.8     n.a.    n.a.  9.63731019510152  27.4866902  113.1341 /T    5.2479   Sgr
 2020-Sep-27 00:00     19 53 11.16 -21 18 52.0     n.a.    n.a.  9.65323964933438  27.6743007  112.1469 /T    5.2842   Sgr
 2020-Sep-28 00:00     19 53 09.92 -21 18 59.1     n.a.    n.a.  9.66927516233117  27.8539749  111.1607 /T    5.3188   Sgr
 2020-Sep-29 00:00     19 53 09.09 -21 19 05.0     n.a.    n.a.  9.68541217249531  28.0257862  110.1757 /T    5.3518   Sgr
 2020-Sep-30 00:00     19 53 08.67 -21 19 09.9     n.a.    n.a.  9.70164615580382  28.1897914  109.1919 /T    5.3832   Sgr
 2020-Oct-01 00:00     19 53 08.66 -21 19 13.5     n.a.    n.a.  9.71797261636845  28.3460312  108.2091 /T    5.4129   Sgr
 2020-Oct-02 00:00     19 53 09.07 -21 19 16.1     n.a.    n.a.  9.73438707718019  28.4945303  107.2273 /T    5.4410   Sgr
 2020-Oct-03 00:00     19 53 09.88 -21 19 17.5     n.a.    n.a.  9.75088507102210  28.6352980  106.2467 /T    5.4674   Sgr
 2020-Oct-04 00:00     19 53 11.11 -21 19 17.7     n.a.    n.a.  9.76746213171976  28.7683288  105.2671 /T    5.4922   Sgr
 2020-Oct-05 00:00     19 53 12.76 -21 19 16.9     n.a.    n.a.  9.78411378599763  28.8936038  104.2885 /T    5.5154   Sgr
 2020-Oct-06 00:00     19 53 14.81 -21 19 14.8     n.a.    n.a.  9.80083554614403  29.0110923  103.3110 /T    5.5369   Sgr
 2020-Oct-07 00:00     19 53 17.28 -21 19 11.7     n.a.    n.a.  9.81762290344610  29.1207523  102.3345 /T    5.5567   Sgr
 2020-Oct-08 00:00     19 53 20.16 -21 19 07.4     n.a.    n.a.  9.83447132201951  29.2225316  101.3590 /T    5.5749   Sgr
 2020-Oct-09 00:00     19 53 23.45 -21 19 02.0     n.a.    n.a.  9.85137623229323  29.3163654  100.3845 /T    5.5915   Sgr
 2020-Oct-10 00:00     19 53 27.16 -21 18 55.4     n.a.    n.a.  9.86833302313703  29.4021738   99.4109 /T    5.6064   Sgr
 2020-Oct-11 00:00     19 53 31.28 -21 18 47.7     n.a.    n.a.  9.88533703157284  29.4798563   98.4384 /T    5.6197   Sgr
